NORAD_CAT_ID,OBJECT_NAME,OBJECT_TYPE,EPOCH,MEAN_MOTION,ECCENTRICITY,INCLINATION,RA_OF_ASC_NODE,ARG_OF_PERICENTER,MEAN_ANOMALY,BSTAR,MEAN_MOTION_DOT,MEAN_MOTION_DDOT,TLE_LINE0,TLE_LINE1,TLE_LINE2,SEMIMAJOR_AXIS,PERIOD,APOGEE,PERIGEE,DECAYED
52996.0,STARLINK-4295,PAYLOAD,2023-09-07 10:49:50,15.0883948,0.0001688,53.2167,238.294,101.7011,258.4171,8.6457e-05,1.088e-05,0.0,0 STARLINK-4295,1 52996U 22076L   23250.45127607  .00001088  00000-0  86457-4 0  9993,2 52996  53.2167 238.2940 0001688 101.7011 258.4171 15.08839480 64823,6917.882,95.438,540.915,538.579,0.0
52996.0,STARLINK-4295,PAYLOAD,2023-09-08 02:43:41,15.08841119,0.0001772,53.2147,235.3201,109.0862,251.0322,-2.4526e-05,-6.78e-06,0.0,0 STARLINK-4295,1 52996U 22076L   23251.11367778 -.00000678  00000-0 -24526-4 0  9997,2 52996  53.2147 235.3201 0001772 109.0862 251.0322 15.08841119 65390,6917.877,95.437,540.968,538.516,0.0
52996.0,STARLINK-4295,PAYLOAD,2023-09-08 10:40:37,15.08840559,0.00016,53.2166,233.8352,92.4701,267.6475,5.2297e-05,5.44e-06,0.0,0 STARLINK-4295,1 52996U 22076L   23251.44487668  .00000544  00000-0  52297-4 0  9990,2 52996  53.2166 233.8352 0001600  92.4701 267.6475 15.08840559 64970,6917.879,95.438,540.851,538.637,0.0
52996.0,STARLINK-4295,PAYLOAD,2023-09-08 15:26:46,15.08840752,0.0001364,53.2165,232.9425,92.2041,267.9108,-3.5414e-05,-8.52e-06,0.0,0 STARLINK-4295,1 52996U 22076L   23251.64359890 -.00000852  00000-0 -35414-4 0  9993,2 52996  53.2165 232.9425 0001364  92.2041 267.9108 15.08840752 65008,6917.878,95.438,540.687,538.799,0.0
52996.0,STARLINK-4295,PAYLOAD,2023-09-09 07:20:38,15.0884284,0.0001411,53.2169,229.9701,95.1882,264.9272,5.6903e-05,6.18e-06,0.0,0 STARLINK-4295,1 52996U 22076L   23252.30599661  .00000618  00000-0  56903-4 0  9993,2 52996  53.2169 229.9701 0001411  95.1882 264.9272 15.08842840 65574,6917.872,95.437,540.713,538.761,0.0
52996.0,STARLINK-4295,PAYLOAD,2023-09-09 15:17:34,15.08836735,0.0001517,53.2166,228.4829,95.0632,265.0533,6.5638e-05,7.57e-06,0.0,0 STARLINK-4295,1 52996U 22076L   23252.63720111  .00000757  00000-0  65638-4 0  9994,2 52996  53.2166 228.4829 0001517  95.0632 265.0533 15.08836735 65629,6917.89,95.438,540.805,538.706,0.0
52996.0,STARLINK-4295,PAYLOAD,2023-09-10 08:46:48,15.08840275,0.0001386,53.2172,225.2124,93.8564,266.2587,8.6732e-05,1.093e-05,0.0,0 STARLINK-4295,1 52996U 22076L   23253.36584100  .00001093  00000-0  86732-4 0  9993,2 52996  53.2172 225.2124 0001386  93.8564 266.2587 15.08840275 65269,6917.88,95.438,540.703,538.786,0.0
52996.0,STARLINK-4295,PAYLOAD,2023-09-11 02:16:03,15.08844615,0.0001622,53.2176,221.9413,90.1644,269.9534,4.9103e-05,4.94e-06,0.0,0 STARLINK-4295,1 52996U 22076L   23254.09448155  .00000494  00000-0  49103-4 0  9998,2 52996  53.2176 221.9413 0001622  90.1644 269.9534 15.08844615 65847,6917.866,95.437,540.853,538.609,0.0
52996.0,STARLINK-4295,PAYLOAD,2023-09-11 07:02:11,15.08868634,0.0001705,53.2177,221.0491,85.3454,274.7732,-0.00023274,-3.993e-05,0.0,0 STARLINK-4295,1 52996U 22076L   23254.29319188 -.00003993  00000-0 -23274-3 0  9992,2 52996  53.2177 221.0491 0001705  85.3454 274.7732 15.08868634 65876,6917.793,95.436,540.837,538.478,0.0
52996.0,STARLINK-4295,PAYLOAD,2023-09-11 10:12:58,15.08848387,0.0001365,53.2173,220.4542,91.5561,268.5587,9.7844e-05,1.27e-05,0.0,0 STARLINK-4295,1 52996U 22076L   23254.42567684  .00001270  00000-0  97844-4 0  9992,2 52996  53.2173 220.4542 0001365  91.5561 268.5587 15.08848387 65425,6917.855,95.437,540.664,538.775,0.0
52996.0,STARLINK-4295,PAYLOAD,2023-09-11 14:59:08,15.08841806,0.000123,53.2169,219.5586,85.9489,274.1643,4.2448e-05,3.88e-06,0.0,0 STARLINK-4295,1 52996U 22076L   23254.62440200  .00000388  00000-0  42448-4 0  9997,2 52996  53.2169 219.5586 0001230  85.9489 274.1643 15.08841806 65924,6917.875,95.437,540.591,538.889,0.0
52996.0,STARLINK-4295,PAYLOAD,2023-09-12 06:52:59,15.08848268,0.0001404,53.2163,216.5871,93.8125,266.3028,0.00012221,1.658e-05,0.0,0 STARLINK-4295,1 52996U 22076L   23255.28679575  .00001658  00000-0  12221-3 0  9995,2 52996  53.2163 216.5871 0001404  93.8125 266.3028 15.08848268 66021,6917.855,95.437,540.691,538.749,0.0
52996.0,STARLINK-4295,PAYLOAD,2023-09-12 10:03:45,15.08850658,0.0001335,53.2167,215.992,90.6003,269.5142,0.00013294,1.829e-05,0.0,0 STARLINK-4295,1 52996U 22076L   23255.41927436  .00001829  00000-0  13294-3 0  9993,2 52996  53.2167 215.9920 0001335  90.6003 269.5142 15.08850658 65573,6917.848,95.437,540.636,538.789,0.0
52996.0,STARLINK-4295,PAYLOAD,2023-09-13 01:57:37,15.08838887,0.0001406,53.2168,213.0179,98.2268,261.8884,-1.5424e-06,-3.12e-06,0.0,0 STARLINK-4295,1 52996U 22076L   23256.08168539 -.00000312  00000-0 -15424-5 0  9995,2 52996  53.2168 213.0179 0001406  98.2268 261.8884 15.08838887 66147,6917.884,95.438,540.721,538.776,0.0
52996.0,STARLINK-4295,PAYLOAD,2023-09-13 06:43:46,15.08847168,0.0001614,53.2192,212.1214,92.2757,267.842,6.7943e-05,7.94e-06,0.0,0 STARLINK-4295,1 52996U 22076L   23256.28039858  .00000794  00000-0  67943-4 0  9992,2 52996  53.2192 212.1214 0001614  92.2757 267.8420 15.08847168 66179,6917.858,95.437,540.84,538.607,0.0
52996.0,STARLINK-4295,PAYLOAD,2023-09-14 01:48:24,15.08838247,0.0001445,53.2164,208.5588,99.0253,261.0903,2.2007e-05,6.2e-07,0.0,0 STARLINK-4295,1 52996U 22076L   23257.07528505  .00000062  00000-0  22007-4 0  9992,2 52996  53.2164 208.5588 0001445  99.0253 261.0903 15.08838247 66292,6917.886,95.438,540.75,538.751,0.0
52996.0,STARLINK-4295,PAYLOAD,2023-09-14 03:23:47,15.088423,0.000154,53.2167,208.2606,99.4465,260.6701,-9.6777e-06,-4.42e-06,0.0,0 STARLINK-4295,1 52996U 22076L   23257.14152374 -.00000442  00000-0 -96777-5 0  9997,2 52996  53.2167 208.2606 0001540  99.4465 260.6701 15.08842300 65833,6917.873,95.437,540.804,538.673,0.0
52996.0,STARLINK-4295,PAYLOAD,2023-09-14 20:53:02,15.08832424,0.0001403,53.2171,204.9909,103.2897,256.8252,6.0398e-05,6.73e-06,0.0,0 STARLINK-4295,1 52996U 22076L   23257.87016869  .00000673  00000-0  60398-4 0  9998,2 52996  53.2171 204.9909 0001403 103.2897 256.8252 15.08832424 65944,6917.904,95.438,540.739,538.798,0.0
52996.0,STARLINK-4295,PAYLOAD,2023-09-15 03:14:34,15.08843649,0.0001363,53.2174,203.8032,94.4056,265.7092,-1.1689e-05,-4.74e-06,0.0,0 STARLINK-4295,1 52996U 22076L   23258.13512509 -.00000474  00000-0 -11689-4 0  9990,2 52996  53.2174 203.8032 0001363  94.4056 265.7092 15.08843649 66454,6917.869,95.437,540.677,538.791,0.0
52996.0,STARLINK-4295,PAYLOAD,2023-09-15 06:25:20,15.0884379,0.0001414,53.2172,203.2064,97.4009,262.7144,4.5346e-05,4.34e-06,0.0,0 STARLINK-4295,1 52996U 22076L   23258.26760332  .00000434  00000-0  45346-4 0  9994,2 52996  53.2172 203.2064 0001414  97.4009 262.7144 15.08843790 66002,6917.869,95.437,540.712,538.756,0.0
52996.0,STARLINK-4295,PAYLOAD,2023-09-16 03:05:21,15.0884133,0.000134,53.2178,199.3446,101.8267,258.2876,0.00013454,1.854e-05,0.0,0 STARLINK-4295,1 52996U 22076L   23259.12872503  .00001854  00000-0  13454-3 0  9995,2 52996  53.2178 199.3446 0001340 101.8267 258.2876 15.08841330 66135,6917.876,95.437,540.668,538.814,0.0
52996.0,STARLINK-4295,PAYLOAD,2023-09-17 02:56:09,15.08841819,0.0001252,53.2176,194.8801,98.7059,261.4075,6.6972e-05,7.78e-06,0.0,0 STARLINK-4295,1 52996U 22076L   23260.12232820  .00000778  00000-0  66972-4 0  9997,2 52996  53.2176 194.8801 0001252  98.7059 261.4075 15.08841819 66750,6917.875,95.437,540.606,538.874,0.0
52996.0,STARLINK-4295,PAYLOAD,2023-09-17 06:06:55,15.08848468,0.0001293,53.2181,194.2882,98.3855,261.7284,0.00013907,1.927e-05,0.0,0 STARLINK-4295,1 52996U 22076L   23260.25480439  .00001927  00000-0  13907-3 0  9998,2 52996  53.2181 194.2882 0001293  98.3855 261.7284 15.08848468 66307,6917.855,95.437,540.614,538.825,0.0
52996.0,STARLINK-4295,PAYLOAD,2023-09-18 02:46:56,15.08845541,0.0001432,53.218,190.4239,94.6398,265.4758,6.8374e-05,8.01e-06,0.0,0 STARLINK-4295,1 52996U 22076L   23261.11592725  .00000801  00000-0  68374-4 0  9995,2 52996  53.2180 190.4239 0001432  94.6398 265.4758 15.08845541 66908,6917.863,95.437,540.719,538.738,0.0
52996.0,STARLINK-4295,PAYLOAD,2023-09-18 04:22:19,15.08846759,0.0001457,53.2177,190.1257,92.7635,267.3524,6.7019e-05,7.79e-06,0.0,0 STARLINK-4295,1 52996U 22076L   23261.18216612  .00000779  00000-0  67019-4 0  9999,2 52996  53.2177 190.1257 0001457  92.7635 267.3524 15.08846759 66444,6917.86,95.437,540.733,538.717,0.0
52996.0,STARLINK-4295,PAYLOAD,2023-09-18 18:40:47,15.08844753,0.0001534,53.2176,187.4487,95.1011,265.0156,9.3752e-05,1.205e-05,0.0,0 STARLINK-4295,1 52996U 22076L   23261.77832749  .00001205  00000-0  93752-4 0  9997,2 52996  53.2176 187.4487 0001534  95.1011 265.0156 15.08844753 66536,6917.866,95.437,540.792,538.67,0.0
52996.0,STARLINK-4295,PAYLOAD,2023-09-19 18:31:34,15.08844704,0.000162,53.2166,182.9898,80.6056,279.512,0.00012829,1.755e-05,0.0,0 STARLINK-4295,1 52996U 22076L   23262.77192577  .00001755  00000-0  12829-3 0  9991,2 52996  53.2166 182.9898 0001620  80.6056 279.5120 15.08844704 67151,6917.866,95.437,540.852,538.61,0.0
52996.0,STARLINK-4295,PAYLOAD,2023-09-20 12:00:49,15.0883631,0.0001552,53.2162,179.7163,82.38,277.7368,-2.7133e-05,-7.2e-06,0.0,0 STARLINK-4295,1 52996U 22076L   23263.50056910 -.00000720  00000-0 -27133-4 0  9991,2 52996  53.2162 179.7163 0001552  82.3800 277.7368 15.08836310 66793,6917.892,95.438,540.83,538.683,0.0
52996.0,STARLINK-4295,PAYLOAD,2023-09-20 18:22:22,15.08824152,0.0001859,53.2165,178.5262,88.4047,271.7159,-0.00030878,-5.197e-05,0.0,0 STARLINK-4295,1 52996U 22076L   23263.76553805 -.00005197  00000-0 -30878-3 0  9996,2 52996  53.2165 178.5262 0001859  88.4047 271.7159 15.08824152 67304,6917.929,95.439,541.08,538.508,0.0
52996.0,STARLINK-4295,PAYLOAD,2023-09-21 00:43:55,15.08825838,0.000151,53.2175,177.3372,90.2778,269.8387,-0.0001844,-3.22e-05,0.0,0 STARLINK-4295,1 52996U 22076L   23264.03050810 -.00003220  00000-0 -18440-3 0  9991,2 52996  53.2175 177.3372 0001510  90.2778 269.8387 15.08825838 66874,6917.924,95.438,540.833,538.744,0.0
